{
    "links": {
        "self": "http://www.neowsapp.com/rest/v1/neo/3449130?api_key=iIulBulltgU6a56xZRHN4H3l9WmuAYTsLGpBGhQ2"
    },
    "id": "3449130",
    "neo_reference_id": "3449130",
    "name": "(2009 EF1)",
    "designation": "2009 EF1",
    "nasa_jpl_url": "http://ssd.jpl.nasa.gov/sbdb.cgi?sstr=3449130",
    "absolute_magnitude_h": 24.2,
    "estimated_diameter": {
        "kilometers": {
            "estimated_diameter_min": 0.0384197891,
            "estimated_diameter_max": 0.0859092601
        },
        "meters": {
            "estimated_diameter_min": 38.4197891064,
            "estimated_diameter_max": 85.9092601232
        },
        "miles": {
            "estimated_diameter_min": 0.0238729428,
            "estimated_diameter_max": 0.0533815229
        },
        "feet": {
            "estimated_diameter_min": 126.0491808919,
            "estimated_diameter_max": 281.8545369825
        }
    },
    "is_potentially_hazardous_asteroid": false,
    "close_approach_data": [
        {
            "close_approach_date": "1941-03-15",
            "close_approach_date_full": "1941-Mar-15 17:04",
            "epoch_date_close_approach": -908780160000,
            "relative_velocity": {
                "kilometers_per_second": "17.4608289136",
                "kilometers_per_hour": "62858.9840888765",
                "miles_per_hour": "39058.1281967799"
            },
            "miss_distance": {
                "astronomical": "0.247475963",
                "lunar": "96.268149607",
                "kilometers": "37021876.94099881",
                "miles": "23004327.606291178"
            },
            "orbiting_body": "Earth"
        },
        {
            "close_approach_date": "2008-09-23",
            "close_approach_date_full": "2008-Sep-23 03:28",
            "epoch_date_close_approach": 1222140480000,
            "relative_velocity": {
                "kilometers_per_second": "8.3089825298",
                "kilometers_per_hour": "29912.3371073176",
                "miles_per_hour": "18586.363020933"
            },
            "miss_distance": {
                "astronomical": "0.4347103816",
                "lunar": "169.1023384424",
                "kilometers": "65031747.154247192",
                "miles": "40408853.8981955696"
            },
            "orbiting_body": "Earth"
        },
        {
            "close_approach_date": "2009-03-01",
            "close_approach_date_full": "2009-Mar-01 05:07",
            "epoch_date_close_approach": 1235884020000,
            "relative_velocity": {
                "kilometers_per_second": "10.5646226246",
                "kilometers_per_hour": "38032.6414486666",
                "miles_per_hour": "23632.004349034"
            },
            "miss_distance": {
                "astronomical": "0.0453455377",
                "lunar": "17.6394141653",
                "kilometers": "6783595.853924699",
                "miles": "4215131.0054068862"
            },
            "orbiting_body": "Earth"
        },
        {
            "close_approach_date": "2120-04-26",
            "close_approach_date_full": "2120-Apr-26 21:41",
            "epoch_date_close_approach": 4743610860000,
            "relative_velocity": {
                "kilometers_per_second": "11.2414382014",
                "kilometers_per_hour": "40469.177525071",
                "miles_per_hour": "25145.9731127309"
            },
            "miss_distance": {
                "astronomical": "0.0257482678",
                "lunar": "10.0160761742",
                "kilometers": "3851886.019069586",
                "miles": "2393450.9864528468"
            },
            "orbiting_body": "Mars"
        }
    ],
    "orbital_data": {
        "orbit_id": "8",
        "orbit_determination_date": "2017-04-06 09:01:05",
        "first_observation_date": "2009-03-03",
        "last_observation_date": "2009-03-05",
        "data_arc_in_days": 2,
        "observations_used": 18,
        "orbit_uncertainty": "9",
        "minimum_orbit_intersection": ".0387108",
        "jupiter_tisserand_invariant": "4.708",
        "epoch_osculation": "2454894.5",
        "eccentricity": ".3729870490137449",
        "semi_major_axis": "1.378257337784411",
        "inclination": "12.53012917301663",
        "ascending_node_longitude": "350.134633245724",
        "orbital_period": "591.0087310992864",
        "perihelion_distance": ".8641852005826631",
        "perihelion_argument": "108.8627266401962",
        "aphelion_distance": "1.892329474986158",
        "perihelion_time": "2454842.885401546665",
        "mean_anomaly": "31.43990006482501",
        "mean_motion": ".609128056924631",
        "equinox": "J2000",
        "orbit_class": {
            "orbit_class_type": "APO",
            "orbit_class_description": "Near-Earth asteroid orbits which cross the Earth’s orbit similar to that of 1862 Apollo",
            "orbit_class_range": "a (semi-major axis) > 1.0 AU; q (perihelion) < 1.017 AU"
        }
    },
    "is_sentry_object": false
}